COSMOS 2433 (720)       
1 32275C 07052A   22354.99979167  .00000000  00000-0  00000-0 0  3541
2 32275  66.0685 358.4800 0005225 259.4989 193.5195  2.13104043    12
COSMOS 2432 (719)       
1 32276C 07052B   22354.99979167  .00000000  00000-0  00000-0 0  3542
2 32276  66.0824 358.5841 0011558 316.0207  84.7704  2.13103182    13
COSMOS 2434 (721)       
1 32393C 07065A   22354.99979167  .00000000  00000-0  00000-0 0  3546
2 32393  64.3574 235.0652 0004196  70.4257 272.7939  2.13102752    12
COSMOS 2436 (723)       
1 32395C 07065C   22354.99979167  .00000000  00000-0  00000-0 0  3548
2 32395  64.3662 235.1243 0016803   5.3913 113.5387  2.13102586    17
COSMOS 2456 (730)       
1 36111C 09070A   22354.99979167 -.00000000  00000-0  00000-0 0  3547
2 36111  64.4056 114.6476 0002146 302.3312 203.8505  2.13098880    18
COSMOS 2457 (733)       
1 36112C 09070B   22354.99979167 -.00000000  00000-0  00000-0 0  3548
2 36112  64.3891 114.5189 0006226 160.1935 114.7573  2.13101238    16
COSMOS 2559 (707K)      
1 54031C 22130A   22354.99979167  .00000000  00000-0  00000-0 0  3549
2 54031  64.7768 359.1659 0007465 234.3523 120.9383  2.13101030    13
COSMOS 2460 (732)       
1 36402C 10007C   22354.99979167  .00000000  00000-0  00000-0 0  3541
2 36402  65.9367 357.2384 0002509 277.4796 342.9318  2.13106136    17
COSMOS 2464 (736)       
1 37139C 10041C   22354.99979167  .00000000  00000-0  00000-0 0  3547
2 37139  64.7764 235.1809 0006692 214.3683 350.6467  2.13055435    17
COSMOS 2476 (744)       
1 37867C 11064A   22354.99979167 -.00000000  00000-0  00000-0 0  3542
2 37867  64.6910 116.0762 0021835 231.8752 181.4005  2.13101758    17
COSMOS 2477 (745)       
1 37868C 11064B   22354.99979167 -.00000000  00000-0  00000-0 0  3543
2 37868  64.6985 116.1428 0019073 232.4292 358.8650  2.13101451    13
COSMOS 2475 (743)       
1 37869C 11064C   22354.99979167 -.00000000  00000-0  00000-0 0  3544
2 37869  64.7057 116.1528 0022905 250.8645 298.6415  2.13101550    10
COSMOS 2485 (747)       
1 39155C 13019A   22354.99979167 -.00000000  00000-0  00000-0 0  3546
2 39155  64.8534 116.5447 0022374 227.9369 229.7355  2.13101707    15
COSMOS 2492 (754)       
1 39620C 14012A   22354.99979167  .00000000  00000-0  00000-0 0  3546
2 39620  65.8221 356.8933 0014754 314.8756 177.1163  2.13103128    16
COSMOS 2500 (755)       
1 40001C 14032A   22354.99979167  .00000000  00000-0  00000-0 0  3543
2 40001  65.7611 356.7406 0007637 222.0724 128.0472  2.13102217    10
COSMOS 2501 (702K)      
1 40315C 14075A   22354.99979167  .00000000  00000-0  00000-0 0  3548
2 40315  63.6628 234.6455 0017221 206.4129 312.6061  2.13101119    11
COSMOS 2514 (751)       
1 41330C 16008A   22354.99979167  .00000000  00000-0  00000-0 0  3544
2 41330  65.5602 356.3860 0011548 224.1807 310.1088  2.13102598    14
COSMOS 2522 (752)       
1 42939C 17055A   22354.99979167  .00000000  00000-0  00000-0 0  3543
2 42939  64.1228 235.4237 0005821 243.6677  50.9150  2.13101649    17
COSMOS 2527 (756)       
1 43508C 18053A   22354.99979167 -.00000000  00000-0  00000-0 0  3546
2 43508  65.0158 116.5836 0008279 219.2273 107.3628  2.13102480    18
COSMOS 2529 (757)       
1 43687C 18086A   22354.99979167  .00000000  00000-0  00000-0 0  3549
2 43687  64.3379 235.7902 0007924 272.2651 337.8066  2.13101787    11
COSMOS 2534 (758)       
1 44299C 19030A   22354.99979167  .00000000  00000-0  00000-0 0  3549
2 44299  64.4101 235.6924 0010983 294.4734  89.9894  2.13101618    12
COSMOS 2544 (759)       
1 44850C 19088A   22354.99979167 -.00000000  00000-0  00000-0 0  3546
2 44850  65.0013 116.4319 0011928 250.9494 118.9499  2.13102242    16
COSMOS 2545 (760)       
1 45358C 20018A   22354.99979167  .00000000  00000-0  00000-0 0  3544
2 45358  64.8994 356.8413 0011462 253.6032 325.5479  2.13102470    18
COSMOS 2547 (705K)      
1 46805C 20075A   22354.99979167  .00000000  00000-0  00000-0 0  3545
2 46805  64.6357 235.1720 0005704 245.7300 187.0567  2.13102762    12
COSMOS 2557 (706K)      
1 52984C 20075A   22354.99979167  .00000000  00000-0  00000-0 0  3540
2 52984  64.8062 359.0292 0013932 281.0401  28.9343  2.13101493    14
